C/2011 M1 (LINEAR),h,09/06.2470/2011,70.1569,324.7749,119.7824,1.002458,0.906056,2000,12.0,4.0
# From MPC 87913
P/2011 N1 (ASH),e,35.6920,77.6331,330.5929,6.258496,0.0629505,0.54370265,106.0161,01/05.0/2017,2000,g 11.5,4.0
# From MPC 75714
P/2011 NO1 (Elenin),e,15.2506,295.9969,263.6355,5.519685,0.0760033,0.77618818,165.2189,01/05.0/2017,2000,g 15.0,4.0
# From MPC 76569
C/2011 N2 (McNaught),e,33.7209,273.9005,356.9472,1331,0.0000203,0.99808253,0.0000,10/19.2322/2011,2000,g 11.5,4.0
# From MPC 87476
C/2011 O1 (LINEAR),e,76.5665,89.7857,232.3348,697.8271,0.0000535,0.99442609,0.0000,08/17.7262/2012,2000,g  7.0,4.0
# From MPC 78186
P/2011 P1 (McNaught),e,5.6452,4.3022,349.0963,7.491469,0.0480677,0.32399789,113.8874,01/05.0/2017,2000,g  9.0,4.0
# From MPC 84931
C/2011 P2 (PANSTARRS),e,9.0064,203.9845,75.8728,9.711777,0.0325654,0.36921951,75.2391,01/05.0/2017,2000,g  8.5,4.0
# From MPC 79867
C/2011 Q1 (PANSTARRS),e,94.8909,142.2206,135.8028,3826,0.0000042,0.99823140,0.0000,06/29.1068/2011,2000,g  9.5,4.0
# From MPC 79342
C/2011 Q2 (McNaught),e,37.2246,287.1234,34.8322,825.9140,0.0000415,0.99836184,0.0000,01/17.8876/2012,2000,g 10.0,4.0
# From MPC 77806
P/2011 Q3 (McNaught),e,6.0525,32.0348,311.0644,4.969129,0.0889782,0.53172080,177.0251,01/05.0/2017,2000,g 13.5,4.0
# From MPC 79342
C/2011 Q4 (SWAN),e,147.9130,252.0226,1.8710,41.18418,0.0037291,0.97279452,0.0000,09/18.6861/2011,2000,g 12.5,4.0
# From MPC 88325
C/2011 R1 (McNaught),e,116.1618,221.3162,308.8037,10796,0.0000009,0.99980708,0.0000,10/18.5765/2012,2000,g  6.5,4.0
# From MPC 90269
P/2011 R3 (Novichonok-Gerke),e,19.2572,190.3935,224.0227,4.810803,0.0934066,0.26414607,163.1526,01/05.0/2017,2000,g 11.0,4.0
# From MPC 98558
P/2011 S1 (Gibbs),e,2.6825,218.9314,193.4809,8.622398,0.0389280,0.20058129,33.5878,01/05.0/2017,2000,g  8.0,4.0
# From MPC 80897
C/2011 S2 (Kowalski),e,17.5597,288.0552,192.3323,16.44355,0.0147812,0.93180421,28.0562,01/05.0/2017,2000,g 15.5,4.0
# From MPC 78186
P/2011 U1 (PANSTARRS),e,15.2399,134.9813,353.3736,4.053667,0.1207625,0.41726380,200.3679,01/05.0/2017,2000,g 14.5,4.0
# From MPC 93583
P/2011 U2 (Bressi),e,9.7353,264.8506,139.6657,5.165641,0.0839494,0.08975123,159.4718,01/05.0/2017,2000,g 10.0,4.0
# From MPC 78186
C/2011 U3 (PANSTARRS),e,116.7137,228.1872,287.7042,2284,0.0000090,0.99953080,0.0000,06/02.9594/2012,2000,g 14.0,4.0
# From MPC 79022
P/2011 UA134 (Spacewatch-PANSTARRS),e,10.4920,40.6184,32.5737,5.595602,0.0744618,0.63025628,138.3953,01/05.0/2017,2000,g 17.5,4.0
# From MPC 88325
C/2011 UF305 (LINEAR),e,94.0187,297.5310,122.0246,3531,0.0000047,0.99939288,0.0000,07/21.1875/2012,2000,g  9.0,4.0
# From MPC 77406
P/2011 V1 (Boattini),e,7.3642,46.9912,269.2756,3.850616,0.1304394,0.55345170,277.3382,01/05.0/2017,2000,g 15.5,4.0
# From MPC 79022
P/2011 VJ5 (Lemmon),e,3.9754,169.9197,315.2755,3.404371,0.1569094,0.55716499,290.7952,01/05.0/2017,2000,g 17.5,4.0
# From MPC 82718
P/2011 W1 (PANSTARRS),e,3.7172,161.8169,282.8041,4.657990,0.0980407,0.28627948,177.4927,01/05.0/2017,2000,g 11.5,4.0
# From MPC 80897
P/2011 W2 (Rinner),e,13.7581,231.9729,221.2956,3.806051,0.1327370,0.39278782,250.5389,01/05.0/2017,2000,g 13.0,4.0
# From MPC 77807
C/2011 W3 (Lovejoy),e,135.0449,327.6505,54.5224,71.01837,0.0016468,0.99991334,0.0000,12/14.7683/2011,2000,g 14.5,4.0
# From MPC 79342
P/2011 Y2 (Boattini),e,6.3632,309.5004,131.9601,6.238952,0.0632465,0.71070395,110.8477,01/05.0/2017,2000,g 15.0,4.0
# From MPC 79342
C/2011 Y3 (Boattini),e,26.5147,84.8546,340.6577,11.78204,0.0243710,0.70221645,47.8937,01/05.0/2017,2000,g  8.0,4.0
# From MPC 93583
C/2012 A1 (PANSTARRS),h,12/04.4243/2013,120.9285,278.0079,192.0895,1.002214,7.605044,2000,6.0,4.0
# From MPC 91611
C/2012 A2 (LINEAR),e,125.9037,191.4254,101.7188,1241,0.0000225,0.99715159,0.0000,11/05.9808/2012,2000,g  8.5,4.0
# From MPC 80898
P/2012 A3 (SOHO),e,11.4558,176.4019,217.7745,2.572523,0.2388719,0.77555877,72.0049,01/05.0/2017,2000,g 17.0,4.0
# From MPC 94669
P/2012 B1 (PANSTARRS),e,7.6232,36.1542,162.3995,6.511723,0.0593144,0.41206761,74.7720,01/05.0/2017,2000,g  9.0,4.0
# From MPC 82719
C/2012 B3 (La Sagra),e,107.0215,252.9750,50.7786,4872,0.0000029,0.99927269,0.0000,12/05.9318/2011,2000,g 10.0,4.0
# From MPC 83519
C/2012 BJ98 (Lemmon),e,2.6365,124.0145,73.0354,17.23226,0.0137781,0.87480157,21.5883,01/05.0/2017,2000,g 12.5,4.0
# From MPC 89309
C/2012 C1 (McNaught),e,96.2427,300.6264,279.8841,2731,0.0000069,0.99822957,0.0000,02/04.9753/2013,2000,g  7.5,4.0
# From MPC 80898
C/2012 C2 (Bruenjes),h,03/13.1927/2012,162.7856,117.9774,62.5681,1.002852,0.796700,2000,17.0,4.0
# From MPC 78590
P/2012 C3 (PANSTARRS),e,9.0920,135.3677,344.9542,9.748681,0.0323806,0.63011148,359.9758,10/06.0/2011,2000,g 13.0,4.0
# From MPC 84022
C/2012 CH17 (MOSS),e,27.7528,125.8898,137.9190,2520,0.0000078,0.99948867,0.0000,09/28.8869/2012,2000,g 11.0,4.0
# From MPC 84022
C/2012 E1 (Hill),e,122.5730,286.2932,48.7931,1078,0.0000278,0.99304051,0.0000,06/30.7755/2011,2000,g  6.5,4.0
# From MPC 79023
C/2012 E2 (SWAN),p,03/15.0314/2012,144.2218,83.3435,0.006952,7.7078,2000,10.0,4.0
# From MPC 82318
C/2012 E3 (PANSTARRS),e,105.5695,5.4997,103.4983,206.6686,0.0003317,0.98144606,0.0000,05/10.5960/2011,2000,g 10.0,4.0
# From MPC 79868
C/2012 F1 (Gibbs),e,159.5588,130.3411,300.9051,72.31419,0.0016028,0.96454481,2.8582,01/05.0/2017,2000,g 14.0,4.0
# From MPC 84931
P/2012 F2 (PANSTARRS),e,14.7389,227.0897,33.0943,6.322569,0.0619960,0.54275908,84.6645,01/05.0/2017,2000,g 12.0,4.0
# From MPC102094
C/2012 F3 (PANSTARRS),h,04/06.8043/2015,11.3545,164.6114,104.0286,1.002730,3.456815,2000,6.5,4.0
# From MPC 90766
C/2012 F6 (Lemmon),e,82.6189,332.6891,304.8483,412.1670,0.0001178,0.99823828,0.0000,03/24.7107/2013,2000,g 10.0,4.0
# From MPC 79344
P/2012 G1 (PANSTARRS),e,11.6925,282.5440,286.1149,4.172871,0.1156250,0.38072240,359.9500,06/01.0/2012,2000,g 15.0,4.0
# From MPC 80046
C/2012 H2 (McNaught),e,92.7932,184.0616,295.9767,16.10435,0.0152507,0.89290774,26.0576,01/05.0/2017,2000,g 15.5,4.0
# From MPC 89726
C/2012 J1 (Catalina),h,12/06.2987/2012,34.0936,235.1254,147.3671,1.001341,3.160907,2000,8.0,4.0
# From MPC101094
C/2012 K1 (PANSTARRS),h,08/27.8387/2014,142.4049,317.7545,203.1295,1.000476,1.054266,2000,5.6,3.2
# From MPC 80898
P/2012 K3 (Gibbs),e,13.1971,125.8751,172.2997,3.620218,0.1430876,0.42390388,223.3238,01/05.0/2017,2000,g 15.0,4.0
# From MPC 88326
C/2012 K5 (LINEAR),e,92.8212,279.1942,139.3570,685.6630,0.0000549,0.99832969,0.0000,11/28.3387/2012,2000,g 12.0,4.0
# From MPC 94278
C/2012 K6 (McNaught),e,135.2205,206.9043,338.8856,1459,0.0000177,0.99769720,0.0000,05/20.7229/2013,2000,g  8.5,4.0
# From MPC100577
C/2012 K8 (Lemmon),e,106.1176,312.7980,75.8850,15631,0.0000005,0.99958638,0.0000,08/19.4354/2014,2000,g  6.0,4.0
# From MPC 88326
C/2012 L1 (LINEAR),e,87.2369,271.8606,140.2330,603.6502,0.0000665,0.99625033,0.0000,12/24.8179/2012,2000,g 10.5,4.0
# From MPC 88326
C/2012 L2 (LINEAR),e,70.9181,270.3318,205.8701,617.3337,0.0000643,0.99754819,0.0000,05/08.9411/2013,2000,g 10.0,4.0
# From MPC 84023
C/2012 L3 (LINEAR),e,134.1379,53.4332,106.9169,294.3875,0.0001951,0.98966939,0.0000,06/10.8617/2012,2000,g 13.0,4.0
# From MPC102094
C/2012 LP26 (Palomar),h,08/16.4814/2015,25.3770,153.9879,145.1383,1.000277,6.535688,2000,6.5,4.0
# From MPC 88326
P/2012 NJ (La Sagra),e,84.4129,315.7343,338.2803,8.455682,0.0400849,0.84766442,66.8517,01/05.0/2017,2000,g 14.5,4.0
# From MPC 84625
C/2012 OP (Siding Spring),e,114.8327,267.3010,351.3175,695.5292,0.0000537,0.99481504,0.0000,12/03.6414/2012,2000,g 13.5,2.0
# From MPC 81470
P/2012 O1 (McNaught),e,7.4289,92.4902,237.9955,3.530473,0.1485781,0.59763710,243.3723,01/05.0/2017,2000,g 17.5,4.0
# From MPC 80899
P/2012 O2 (McNaught),e,24.4959,120.7407,183.4371,3.617109,0.1432721,0.53301250,238.0227,01/05.0/2017,2000,g 17.0,4.0
# From MPC 82720
P/2012 O3 (McNaught),e,16.5778,336.4070,344.6661,4.580579,0.1005365,0.64541212,161.5707,01/05.0/2017,2000,g 16.5,4.0
# From MPC 90767
C/2012 Q1 (Kowalski),e,45.2311,184.4293,139.0201,25.99800,0.0074352,0.63571024,13.3567,01/05.0/2017,2000,g  4.0,4.0
# From MPC 89726
C/2012 S1 (ISON),h,11/28.4225/2013,62.6858,295.5547,345.6702,1.000259,0.012756,2000,8.5,3.2
# From MPC 82720
P/2012 S2 (La Sagra),e,8.6753,51.2836,312.6521,4.399845,0.1067943,0.69227350,171.5943,01/05.0/2017,2000,g 17.0,4.0
# From MPC 88327
C/2012 S3 (PANSTARRS),e,112.9524,121.2743,183.6608,4533,0.0000032,0.99949105,0.0000,08/30.4452/2013,2000,g 10.0,4.0
# From MPC 88327
C/2012 S4 (PANSTARRS),e,126.5601,173.1161,163.5208,21660,0.0000003,0.99979952,0.0000,06/27.5711/2013,2000,g  8.5,4.0
# From MPC 82720
P/2012 SB6 (Lemmon),e,11.0702,9.1160,12.1164,3.875477,0.1291863,0.39548560,196.2880,01/05.0/2017,2000,g 14.0,4.0
# From MPC 88694
P/2012 T1 (PANSTARRS),e,11.0574,85.7273,299.9598,3.149221,0.1763597,0.23738604,278.5351,01/05.0/2017,2000,g 15.0,4.0
# From MPC 82320
P/2012 T2 (PANSTARRS),e,12.5539,73.7400,311.0036,5.746694,0.0715446,0.16012610,96.6349,01/05.0/2017,2000,g 10.0,4.0
# From MPC 80900
P/2012 T3 (PANSTARRS),e,9.5486,114.3986,195.4549,6.161452,0.0644436,0.61505775,110.6434,01/05.0/2017,2000,g 15.0,4.0
# From MPC 84023
C/2012 T4 (McNaught),e,24.1271,99.4163,219.8116,118.9474,0.0007598,0.98359776,0.0000,10/10.5652/2012,2000,g 13.5,4.0
# From MPC 84023
C/2012 T5 (Bressi),h,02/24.1276/2013,72.2409,230.2884,318.1998,1.000390,0.323408,2000,13.0,4.0
# From MPC 82720
C/2012 T6 (Kowalski),e,33.3246,186.1262,197.9824,14.08684,0.0186416,0.87407953,29.7345,01/05.0/2017,2000,g 15.0,4.0
# From MPC 87914
P/2012 TK8 (Tenagra),e,6.2859,289.3005,126.6656,4.164284,0.1159828,0.26728965,155.5839,01/05.0/2017,2000,g 13.0,4.0
# From MPC 95208
C/2012 U1 (PANSTARRS),e,56.3489,26.9657,70.1972,2957,0.0000061,0.99821798,0.0000,07/05.3569/2014,2000,g  7.5,4.0
# From MPC 82720
P/2012 U2 (PANSTARRS),e,10.7407,185.2388,228.6759,7.163144,0.0514101,0.49880214,77.7349,01/05.0/2017,2000,g 12.5,4.0
# From MPC 84024
P/2012 US27 (Siding Spring),e,39.3070,49.1822,1.1456,5.168645,0.0838763,0.64769497,119.7964,01/05.0/2017,2000,g 13.5,4.0
